[
    {
        "Altitude(m)": 559025.4634453213,
        "Argument of Periapsis(deg)": 0.033114955553567506,
        "Eccentricity": 0.0,
        "Inclination(deg)": 53.0,
        "Latitude(deg)": 49.31215322317508,
        "Longitude(deg)": 160.35961033889743,
        "Mean Anomaly(deg)": 108.63986433788791,
        "RAAN(deg)": 144.9507168426401,
        "Satellite Name": "Starlink Shell 1 641",
        "Satellite Number": 641,
        "Semi-Major Axis(m)": 6931778.249405717,
        "Time(s)": 950
    },
    {
        "Altitude(m)": 558968.5082714839,
        "Argument of Periapsis(deg)": 0.03346353403307874,
        "Eccentricity": 0.0,
        "Inclination(deg)": 53.0,
        "Latitude(deg)": 49.06322628227973,
        "Longitude(deg)": 161.19643274782192,
        "Mean Anomaly(deg)": 109.26669554144468,
        "RAAN(deg)": 144.9501980725626,
        "Satellite Name": "Starlink Shell 1 641",
        "Satellite Number": 641,
        "Semi-Major Axis(m)": 6931778.249405717,
        "Time(s)": 960
    },
    {
        "Altitude(m)": 558910.0490749663,
        "Argument of Periapsis(deg)": 0.03381211251258998,
        "Eccentricity": 0.0,
        "Inclination(deg)": 53.0,
        "Latitude(deg)": 48.80767694800162,
        "Longitude(deg)": 162.0244193839396,
        "Mean Anomaly(deg)": 109.89352674500132,
        "RAAN(deg)": 144.94967930248515,
        "Satellite Name": "Starlink Shell 1 641",
        "Satellite Number": 641,
        "Semi-Major Axis(m)": 6931778.249405717,
        "Time(s)": 970
    },
    {
        "Altitude(m)": 558850.1216360262,
        "Argument of Periapsis(deg)": 0.034160690992101214,
        "Eccentricity": 0.0,
        "Inclination(deg)": 53.0,
        "Latitude(deg)": 48.545629865734774,
        "Longitude(deg)": 162.84351301770442,
        "Mean Anomaly(deg)": 110.52035794855811,
        "RAAN(deg)": 144.9491605324077,
        "Satellite Name": "Starlink Shell 1 641",
        "Satellite Number": 641,
        "Semi-Major Axis(m)": 6931778.249405717,
        "Time(s)": 980
    },
    {
        "Altitude(m)": 558788.7626813299,
        "Argument of Periapsis(deg)": 0.034509269471612446,
        "Eccentricity": 0.0,
        "Inclination(deg)": 53.0,
        "Latitude(deg)": 48.27720972026761,
        "Longitude(deg)": 163.65366993036415,
        "Mean Anomaly(deg)": 111.14718915211482,
        "RAAN(deg)": 144.94864176233023,
        "Satellite Name": "Starlink Shell 1 641",
        "Satellite Number": 641,
        "Semi-Major Axis(m)": 6931778.249405717,
        "Time(s)": 990
    }
]